GAOFEN DUOMO (GFDM)     
1 45856U 20042A   25126.20957606  .00001370  00000+0  20134-3 0  9990
2 45856  97.8259 194.5502 0012283 323.7200  36.3177 14.76997266260944
ZINYUAN-3               
1 45939U 20051A   25126.18671507  .00007120  00000+0  31890-3 0  9992
2 45939  97.3271 200.7864 0004859  35.8170 324.3391 15.21543565265474
TYVAK-0172              
1 46267U 20059C   25125.85383976  .00025141  00000+0  84595-3 0  9991
2 46267  97.7826 343.5560 0000671 124.6032 235.5271 15.30781702255645
ION-MK01                
1 46274U 20061C   25125.63113388  .00030158  00000+0  54866-3 0  9998
2 46274  97.2478 193.1354 0002376  38.2269 321.9150 15.49466300259562
UPMSAT-2                
1 46276U 20061E   25126.19075582  .00068382  00000+0  71348-3 0  9999
2 46276  97.2463 199.5295 0001342 153.5867 206.5461 15.64301183260085
NEMO-HD                 
1 46277U 20061F   25126.19889474  .00011244  00000+0  32838-3 0  9999
2 46277  97.2472 188.5442 0002850  89.9561 270.2010 15.35470090259354
3CAT-5A                 
1 46292U 20061W   25126.12388558  .00014007  00000+0  43856-3 0  9998
2 46292  97.2975 187.1143 0004048 130.0732 230.0866 15.33206713258417
3CAT-5B                 
1 46293U 20061X   25125.74397958  .00014832  00000+0  45787-3 0  9991
2 46293  97.2983 187.1820 0003862 131.5719 228.5855 15.33646710258351
OSM-1 CICERO            
1 46294U 20061Y   25125.44964424  .00103467  00000+0  96276-3 0  9999
2 46294  97.3084 200.4482 0003436 158.1717 201.9691 15.67056665259218
NAPA-1                  
1 46320U 20061BA  25126.18888976  .00025070  00000+0  63578-3 0  9990
2 46320  97.3026 191.4480 0002679 104.9849 255.1693 15.39678465258695
JILIN-1 GAOFEN 3B       
1 46454U 20065A   25126.19217034  .00030785  00000+0  71717-3 0  9997
2 46454  97.2877 174.0786 0006587 151.9710 208.1893 15.42193473256944
JILIN-1 GAOFEN 3E       
1 46457U 20065D   25126.21603176  .00022991  00000+0  66548-3 0  9995
2 46457  97.2895 172.8822 0021944 200.5849 159.4513 15.35355156256859
JILIN-1 GAOFEN 3F       
1 46458U 20065E   25126.18034210  .00021226  00000+0  62638-3 0  9995
2 46458  97.2828 171.2539 0023767 187.3711 172.7186 15.34720067256848
JILIN-1 GAOFEN 3G       
1 46459U 20065F   25126.16470617  .00026011  00000+0  71838-3 0  9998
2 46459  97.2940 174.8949 0023470 101.3027 259.0856 15.36758136256905
JILIN-1 GAOFEN 3H       
1 46460U 20065G   25126.18981355  .00023472  00000+0  65621-3 0  9999
2 46460  97.2851 172.3022 0013260  39.2134 321.0068 15.36593726256892
JILIN-1 GAOFEN 3J       
1 46462U 20065J   25126.22523076  .00030327  00000+0  72840-3 0  9996
2 46462  97.2882 174.1345 0006981 158.8966 201.2570 15.41273261256958
HAIYANG-2C              
1 46469U 20066A   25126.21853686 -.00000011  00000+0  63679-4 0  9995
2 46469  65.9941 148.5484 0010126 299.9242  60.0820 13.83372512233498
HJ-2A                   
1 46478U 20067A   25126.22319994  .00001280  00000+0  19080-3 0  9990
2 46478  97.9131 208.3813 0004605 113.1947 246.9748 14.76532366248206
HJ-2B                   
1 46479U 20067B   25126.19127893  .00001282  00000+0  19107-3 0  9994
2 46479  97.9180 209.0912 0000526 174.3409 185.7807 14.76529688248208
GONETS-M 17             
1 46486U 20068A   25126.13115509  .00000024  00000+0  10406-3 0  9994
2 46486  82.4980 240.6945 0023144 200.3967 159.6191 12.42893567208786
GONETS-M 18             
1 46487U 20068B   25126.17875464  .00000042  00000+0  23325-3 0  9996
2 46487  82.4936 239.9424 0020392 196.6896 163.3515 12.42883989208780
GONETS-M 19             
1 46488U 20068C   25126.23192702  .00000026  00000+0  11539-3 0  9997
2 46488  82.4960 240.2711 0013678 209.4253 150.6058 12.42857307208800
DEKART                  
1 46493U 20068H   25125.92792104  .00012902  00000+0  49645-3 0  9995
2 46493  97.8562 105.1479 0009338 281.2860  78.7328 15.26493945253432
NORBI                   
1 46494U 20068J   25125.91831541  .00017409  00000+0  58440-3 0  9994
2 46494  97.8544 107.4953 0007860 271.4230  88.6109 15.30912256253584
SALSAT                  
1 46495U 20068K   25125.84843032  .00009326  00000+0  40823-3 0  9990
2 46495  97.8586 102.2910 0009453 285.7887  74.2305 15.22241171253247
ICEYE-X6                
1 46497U 20068M   25126.19518668  .00005169  00000+0  41248-3 0  9998
2 46497  98.0519  97.5756 0006163  35.2929 324.8701 15.00743523252115
NETSAT-4                
1 46504U 20068U   25125.87949081  .00019442  00000+0  68200-3 0  9994
2 46504  97.8438 101.7780 0006299 343.5454  16.5580 15.29466853253248
NETSAT-3                
1 46505U 20068V   25125.83894248  .00016016  00000+0  58722-3 0  9997
2 46505  97.8433 100.7580 0006439 355.6946   4.4236 15.28059463253201
NETSAT-1                
1 46506U 20068W   25125.85131921  .00012792  00000+0  53818-3 0  9990
2 46506  97.8462  98.8446 0006700  10.0341 350.1028 15.23517563253074
NETSAT-2                
1 46507U 20068X   25125.86112272  .00018243  00000+0  64777-3 0  9993
2 46507  97.8436 101.2673 0005799  16.8141 343.3289 15.29086006253180
TIANQI-6                
1 46810U 20076D   25126.14345126  .00005321  00000+0  38646-3 0  9996
2 46810  35.0013  18.9306 0011533 197.2919 162.7398 15.03232820247321
KSM1-C                  
1 46906U 20081B   25125.87605949  .00010368  00000+0  49647-3 0  9999
2 46906  36.8949  36.8413 0002383  23.0139 337.0714 15.18420161247068
KSM1-D                  
1 46907U 20081C   25126.20046626  .00009540  00000+0  47134-3 0  9998
2 46907  36.8979  38.0707 0003288  65.7476 294.3614 15.17361458247150
KSM1-A                  
1 46912U 20081H   25126.19027751  .00010546  00000+0  51043-3 0  9992
2 46912  36.8975  35.1133 0002552 187.3973 172.6736 15.18042803247186
R2                      
1 46913U 20081J   25125.85371138  .00009815  00000+0  47792-3 0  9999
2 46913  36.9006  35.7191 0006268  96.0743 264.0717 15.17846104249915
KSM1-B                  
1 46914U 20081K   25126.16146279  .00009103  00000+0  45137-3 0  9992
2 46914  36.9027  38.1527 0004858 102.5661 257.5629 15.17249505246428
GONETS-M 20             
1 47227U 20091A   25126.16982920  .00000022  00000+0  88488-4 0  9990
2 47227  82.5066 195.4162 0019877 353.1169   6.9635 12.42896095200635
GONETS-M 21             
1 47228U 20091B   25126.22470860  .00000013  00000+0  22210-4 0  9994
2 47228  82.4989 194.3438 0014125   8.3851 351.7462 12.42866749200644
GONETS-M 22             
1 47229U 20091C   25126.19646784  .00000014  00000+0  27417-4 0  9996
2 47229  82.5047 195.0653 0020591 346.9614  13.0931 12.42855508200628
CUBEL                   
1 47448U 21006AM  25126.11143174  .00008465  00000+0  28813-3 0  9991
2 47448  97.2916 176.9404 0008540 185.9974 174.1166 15.30627658237263
ASTROCAST-0103          
1 47487U 21006CC  25126.12163010  .00025558  00000+0  53557-3 0  9991
2 47487  97.3053 184.3655 0006434 161.9968 198.1510 15.45381473237703
ASTROCAST-0104          
1 47519U 21006DK  25126.15251017  .00024427  00000+0  54065-3 0  9994
2 47519  97.2976 183.0842 0006494 147.3153 212.8498 15.43771113237673
ARKTIKA-M 1             
1 47719U 21016A   25124.26390770  .00000050  00000+0  00000+0 0  9999
2 47719  63.1456 113.2774 7087168 268.5797  16.7566  2.00603543 30581
STARLINK-2342           
1 47883U 21021Z   25125.51897697  .00015181  00000+0  10359-2 0  9998
2 47883  53.0528 220.0491 0001214  88.4588 271.6540 15.06398796229846
GRUS-1B                 
1 47934U 21022C   25126.20705203  .00001437  00000+0  12754-3 0  9995
2 47934  97.5900  16.7933 0016186 250.7808 109.1663 14.97631394224955
2021-022F               
1 47937U 21022F   25126.22330700  .00009298  00000+0  37367-3 0  9996
2 47937  97.4275  23.8521 0013623  93.7628 266.5167 15.25066053227532
CANYVAL-C (PUMBAA)      
1 47938U 21022G   25125.77359568  .00401756  00000+0  16031-2 0  9998
2 47938  97.4122  37.5424 0008368 103.9894 256.2307 15.85559196228430
WILDTRACKCUBE-SIMBA     
1 47941U 21022K   25126.17153213  .00034197  00000+0  76313-3 0  9997
2 47941  97.4256  29.9759 0012772  81.2382 279.0312 15.43396247227889
ELSA-D                  
1 47944U 21022N   25126.17929603  .00119173  00000+0  10505-2 0  9992
2 47944  97.4273  38.0291 0008774  75.2642 284.9591 15.68304625228434
UNISAT-7                
1 47945U 21022P   25125.62372715  .00013418  00000+0  48310-3 0  9999
2 47945  97.4247  24.3448 0013758  89.7256 270.5560 15.28617087227371
2021-022Q               
1 47946U 21022Q   25126.23291434  .00058788  00000+0  95431-3 0  9991
2 47946  97.4262  34.3957 0010054  65.1937 295.0360 15.52490091228209
CUBESX-SIRIUS-HSE       
1 47951U 21022V   25125.75697729  .00306038  00000+0  15453-2 0  9999
2 47951  97.4165  37.1610 0009031  96.3331 263.8966 15.80739086228320
CUBESX-HSE              
1 47952U 21022W   25126.21553873  .00313671  00000+0  15293-2 0  9996
2 47952  97.4169  37.9088 0008435  95.5335 264.6895 15.81493146228419
2021-022X               
1 47953U 21022X   25126.21578527  .00022937  00000+0  63410-3 0  9997
2 47953  97.4234  26.7982 0013663  88.9150 271.3660 15.36943153227447
2021-022AC              
1 47958U 21022AC  25126.18354469  .00027333  00000+0  69591-3 0  9996
2 47958  97.4195  27.4786 0013287  87.1330 273.1436 15.39453943226582
GRBALPHA                
1 47959U 21022AD  25125.75432765  .00291884  00000+0  15119-2 0  9995
2 47959  97.4169  37.5101 0008619  95.2351 264.9900 15.80218474227166
GLOBAL-9                
1 47971U 21023G   25125.89315630  .00018882  00000+0  52014-3 0  9997
2 47971  44.9866 357.8381 0008968 252.6674 107.3231 15.36878890232149
AII-BRAVO               
1 48270U 21034C   25126.10506362  .00006184  00000+0  51431-3 0  9995
2 48270  97.6064 185.3834 0004934 151.5256 208.6237 14.99039279218543
TYVAK-182A              
1 48271U 21034D   25125.91838517  .00007520  00000+0  59263-3 0  9990
2 48271  97.6167 187.0234 0002200 323.9539  36.1536 15.01050502218636
